TYVAK-182A              
1 48271U 21034D   26068.71131789  .00007163  00000+0  50673-3 0  9991
2 48271  97.5843 129.3711 0004862 316.5650  43.5193 15.05150420264864
STARLINK-4560           
1 53691U 22105AV  26068.67776497  .00000202  00000+0  18233-4 0  9993
2 53691  97.6028 311.1972 0002314  83.4484 276.7006 15.05644164193303
